ASTROCAST-0401          
1 55110U 23001DF  26068.71172895  .00009750  00000+0  37868-3 0  9995
2 55110  97.5547 160.5206 0008142 188.4231 171.6872 15.26258462176022
STARLINK-30527          
1 58007U 23153S   26068.38881244  .00001635  00000+0  68950-4 0  9990
2 58007  43.0021 200.0773 0002842 280.8447  79.2084 15.27585536137413
